NORAD_CAT_ID,OBJECT_NAME,OBJECT_TYPE,EPOCH,MEAN_MOTION,ECCENTRICITY,INCLINATION,RA_OF_ASC_NODE,ARG_OF_PERICENTER,MEAN_ANOMALY,BSTAR,MEAN_MOTION_DOT,MEAN_MOTION_DDOT,TLE_LINE0,TLE_LINE1,TLE_LINE2,SEMIMAJOR_AXIS,PERIOD,APOGEE,PERIGEE,DECAYED
52601.0,STARLINK-4027,PAYLOAD,2022-10-26 12:32:20,15.08841864,0.0002109,53.2187,41.5479,33.7703,326.3423,0.0001923,2.774e-05,0.0,0 STARLINK-4027,1 52601U 22052D   22299.52246390  .00002774  00000-0  19230-3 0  9998,2 52601  53.2187  41.5479 0002109  33.7703 326.3423 15.08841864 25945,6917.875,95.437,541.1990000000002,538.281,0.0
52601.0,STARLINK-4027,PAYLOAD,2022-10-26 14:07:43,15.08841705,0.0002038,53.2199,41.2484,30.4676,329.6434,0.00021061,3.065e-05,0.0,0 STARLINK-4027,1 52601U 22052D   22299.58870301  .00003065  00000-0  21061-3 0  9998,2 52601  53.2199  41.2484 0002038  30.4676 329.6434 15.08841705 25958,6917.875,95.437,541.15,538.33,0.0
52601.0,STARLINK-4027,PAYLOAD,2022-10-27 02:50:50,15.0883647,0.0002163,53.2178,38.8709,35.4573,324.6563,0.00019083,2.75e-05,0.0,0 STARLINK-4027,1 52601U 22052D   22300.11863596  .00002750  00000-0  19083-3 0  9999,2 52601  53.2178  38.8709 0002163  35.4573 324.6563 15.08836470 25600,6917.891,95.438,541.253,538.26,0.0
52601.0,STARLINK-4027,PAYLOAD,2022-10-27 09:12:22,15.08848658,0.0002174,53.2183,37.6827,34.2155,325.8977,0.00026416,3.919e-05,0.0,0 STARLINK-4027,1 52601U 22052D   22300.38358976  .00003919  00000-0  26416-3 0  9995,2 52601  53.2183  37.6827 0002174  34.2155 325.8977 15.08848658 25646,6917.854,95.437,541.2230000000002,538.215,0.0
52601.0,STARLINK-4027,PAYLOAD,2022-10-28 12:13:54,15.08848775,0.0002247,53.2185,32.628,34.4434,325.6704,7.2085e-05,8.59e-06,0.0,0 STARLINK-4027,1 52601U 22052D   22301.50966369  .00000859  00000-0  72085-4 0  9995,2 52601  53.2185  32.6280 0002247  34.4434 325.6704 15.08848775 26242,6917.854,95.437,541.273,538.164,0.0
52601.0,STARLINK-4027,PAYLOAD,2022-10-29 07:18:32,15.08842381,0.0002255999999999,53.2189,29.0595,33.3425,326.7709,-1.828e-05,-5.79e-06,0.0,0 STARLINK-4027,1 52601U 22052D   22302.30454305 -.00000579  00000-0 -18280-4 0  9994,2 52601  53.2189  29.0595 0002256  33.3425 326.7709 15.08842381 26360,6917.873000000001,95.437,541.299,538.177,0.0
52601.0,STARLINK-4027,PAYLOAD,2022-10-29 23:12:23,15.08848353,0.000227,53.2188,26.0851,32.9171,327.1963,0.00011051,1.471e-05,0.0,0 STARLINK-4027,1 52601U 22052D   22302.96693808  .00001471  00000-0  11051-3 0  9997,2 52601  53.2188  26.0851 0002270  32.9171 327.1963 15.08848353 26036,6917.855,95.437,541.29,538.15,0.0
52601.0,STARLINK-4027,PAYLOAD,2022-10-30 11:55:27,15.08850975,0.0002241,53.2181,23.7068,33.4086,326.7047,0.00012616,1.721e-05,0.0,0 STARLINK-4027,1 52601U 22052D   22303.49685019  .00001721  00000-0  12616-3 0  9997,2 52601  53.2181  23.7068 0002241  33.4086 326.7047 15.08850975 26549,6917.847,95.437,541.262,538.1619999999998,0.0
52601.0,STARLINK-4027,PAYLOAD,2022-10-30 15:06:14,15.08843168,0.0002193,53.2182,23.1128,33.2333,326.8797,-1.9909e-05,-6.05e-06,0.0,0 STARLINK-4027,1 52601U 22052D   22303.62933288 -.00000605  00000-0 -19909-4 0  9991,2 52601  53.2182  23.1128 0002193  33.2333 326.8797 15.08843168 26561,6917.871,95.437,541.253,538.219,0.0
52601.0,STARLINK-4027,PAYLOAD,2022-10-31 11:46:17,15.088174300000002,0.000221,53.2191,19.2468,30.6883,329.4238,-0.00018813,-3.279e-05,0.0,0 STARLINK-4027,1 52601U 22052D   22304.49048071 -.00003279  00000-0 -18813-3 0  9996,2 52601  53.2191  19.2468 0002210  30.6883 329.4238 15.08817430 26264,6917.949000000001,95.439,541.3430000000002,538.286,0.0
52601.0,STARLINK-4027,PAYLOAD,2022-11-01 03:40:07,15.08836317,0.000231,53.2189,16.2733,30.5156,329.5971,-1.0639e-05,-4.58e-06,0.0,0 STARLINK-4027,1 52601U 22052D   22305.15286959 -.00000458  00000-0 -10639-4 0  9994,2 52601  53.2189  16.2733 0002310  30.5156 329.5971 15.08836317 26367,6917.892,95.438,541.355,538.159,0.0
52601.0,STARLINK-4027,PAYLOAD,2022-11-01 10:01:40,15.08843357,0.0002262,53.2191,15.0839,30.8117,329.3007,6.1118e-05,6.85e-06,0.0,0 STARLINK-4027,1 52601U 22052D   22305.41782471  .00000685  00000-0  61118-4 0  9991,2 52601  53.2191  15.0839 0002262  30.8117 329.3007 15.08843357 26832,6917.87,95.437,541.3,538.17,0.0
52601.0,STARLINK-4027,PAYLOAD,2022-11-01 14:47:49,15.08849437,0.0002278,53.219,14.1916,31.5239,328.5889,9.9033e-05,1.289e-05,0.0,0 STARLINK-4027,1 52601U 22052D   22305.61654009  .00001289  00000-0  99033-4 0  9996,2 52601  53.2190  14.1916 0002278  31.5239 328.5889 15.08849437 26437,6917.852,95.437,541.2919999999998,538.141,0.0
52601.0,STARLINK-4027,PAYLOAD,2022-11-02 11:27:51,15.08836475,0.0002352,53.2183,10.3254,31.8529,328.2605,0.00025392,3.755e-05,0.0,0 STARLINK-4027,1 52601U 22052D   22306.47767429  .00003755  00000-0  25392-3 0  9998,2 52601  53.2183  10.3254 0002352  31.8529 328.2605 15.08836475 26992,6917.891,95.438,541.383,538.129,0.0
52601.0,STARLINK-4027,PAYLOAD,2022-11-02 21:00:10,15.08832616,0.0002549,53.2192,8.5409,29.2514,330.862,0.00013392,1.843e-05,0.0,0 STARLINK-4027,1 52601U 22052D   22306.87511782  .00001843  00000-0  13392-3 0  9994,2 52601  53.2192   8.5409 0002549  29.2514 330.8620 15.08832616 27053,6917.903,95.438,541.531,538.005,0.0
52601.0,STARLINK-4027,PAYLOAD,2022-11-03 12:54:00,15.08846844,0.0002503,53.2185,5.5685,33.6507,326.4643,0.00011084,1.476e-05,0.0,0 STARLINK-4027,1 52601U 22052D   22307.53750981  .00001476  00000-0  11084-3 0  9992,2 52601  53.2185   5.5685 0002503  33.6507 326.4643 15.08846844 26726,6917.859,95.437,541.456,537.993,0.0
52601.0,STARLINK-4027,PAYLOAD,2022-11-04 03:12:28,15.08862366,0.0002284,53.2186,2.8921,37.1134,323.0016,0.00034861,5.268e-05,0.0,0 STARLINK-4027,1 52601U 22052D   22308.13365830  .00005268  00000-0  34861-3 0  9995,2 52601  53.2186   2.8921 0002284  37.1134 323.0016 15.08862366 26815,6917.812,95.436,541.257,538.097,0.0
52601.0,STARLINK-4027,PAYLOAD,2022-11-04 12:44:47,15.0885275,0.0002486,53.2194,1.1086,30.6274,329.4863,0.0002017,2.924e-05,0.0,0 STARLINK-4027,1 52601U 22052D   22308.53109987  .00002924  00000-0  20170-3 0  9992,2 52601  53.2194   1.1086 0002486  30.6274 329.4863 15.08852750 26877,6917.840999999999,95.437,541.4259999999998,537.987,0.0
52601.0,STARLINK-4027,PAYLOAD,2022-11-04 20:41:42,15.08843524,0.0002444,53.2191,359.621,33.1105,327.004,-2.0198e-05,-6.1e-06,0.0,0 STARLINK-4027,1 52601U 22052D   22308.86230159 -.00000610  00000-0 -20198-4 0  9997,2 52601  53.2191 359.6210 0002444  33.1105 327.0040 15.08843524 27353,6917.87,95.437,541.425,538.044,0.0
52601.0,STARLINK-4027,PAYLOAD,2022-11-05 09:24:48,15.08831731,0.0002439,53.2184,357.2428,31.545,328.5688,-0.00015463,-2.748e-05,0.0,0 STARLINK-4027,1 52601U 22052D   22309.39222815 -.00002748  00000-0 -15463-3 0  9998,2 52601  53.2184 357.2428 0002439  31.5450 328.5688 15.08831731 27439,6917.906,95.438,541.4580000000002,538.0830000000002,0.0
52601.0,STARLINK-4027,PAYLOAD,2022-11-06 02:54:04,15.08828829,0.0002449,53.2189,353.9725,33.7389,326.3758,-0.00018167,-3.178e-05,0.0,0 STARLINK-4027,1 52601U 22052D   22310.12088807 -.00003178  00000-0 -18167-3 0  9994,2 52601  53.2189 353.9725 0002449  33.7389 326.3758 15.08828829 27116,6917.915,95.438,541.474,538.085,0.0
52601.0,STARLINK-4027,PAYLOAD,2022-11-06 12:26:23,15.08837389,0.0002189,53.219,352.18800000000016,39.3871,320.728,-0.00012646,-2.3e-05,0.0,0 STARLINK-4027,1 52601U 22052D   22310.51832298 -.00002300  00000-0 -12646-3 0  9990,2 52601  53.2190 352.1880 0002189  39.3871 320.7280 15.08837389 27175,6917.888000000001,95.438,541.268,538.239,0.0
52601.0,STARLINK-4027,PAYLOAD,2022-11-07 09:06:24,15.08829487,0.0002605,53.2192,348.3225,32.0748,328.0402,0.00012808,1.75e-05,0.0,0 STARLINK-4027,1 52601U 22052D   22311.37944707  .00001750  00000-0  12808-3 0  9990,2 52601  53.2192 348.3225 0002605  32.0748 328.0402 15.08829487 27732,6917.913000000001,95.438,541.58,537.975,0.0
52601.0,STARLINK-4027,PAYLOAD,2022-11-08 05:46:25,15.08832531,0.0002709,53.2194,344.4581,31.406,328.7094,0.00020013,2.898e-05,0.0,0 STARLINK-4027,1 52601U 22052D   22312.24056872  .00002898  00000-0  20013-3 0  9995,2 52601  53.2194 344.4581 0002709  31.4060 328.7094 15.08832531 27436,6917.903,95.438,541.6419999999998,537.894,0.0
52601.0,STARLINK-4027,PAYLOAD,2022-11-08 08:57:11,15.08835393,0.0002696,53.2193,343.8633,31.9449,328.1706,0.00020935,3.045e-05,0.0,0 STARLINK-4027,1 52601U 22052D   22312.37304752  .00003045  00000-0  20935-3 0  9990,2 52601  53.2193 343.8633 0002696  31.9449 328.1706 15.08835393 27889,6917.894,95.438,541.625,537.894,0.0
52601.0,STARLINK-4027,PAYLOAD,2022-11-09 08:47:59,15.08831882,0.0002563,53.2185,339.4005,31.3694,328.7451,-0.00010388,-1.941e-05,0.0,0 STARLINK-4027,1 52601U 22052D   22313.36665866 -.00001941  00000-0 -10388-3 0  9992,2 52601  53.2185 339.4005 0002563  31.3694 328.7451 15.08831882 28033,6917.905,95.438,541.543,537.997,0.0
52601.0,STARLINK-4027,PAYLOAD,2022-11-09 18:20:17,15.08834692,0.0002604,53.2181,337.6166,33.5401,326.5755,1.213e-05,-9.5e-07,0.0,0 STARLINK-4027,1 52601U 22052D   22313.76409537 -.00000095  00000-0  12130-4 0  9993,2 52601  53.2181 337.6166 0002604  33.5401 326.5755 15.08834692 27666,6917.897,95.438,541.563,537.96,0.0
52601.0,STARLINK-4027,PAYLOAD,2022-11-10 02:17:12,15.08844636,0.0002376,53.2204,336.1319,30.081,330.0318,6.5274e-05,7.51e-06,0.0,0 STARLINK-4027,1 52601U 22052D   22314.09528547  .00000751  00000-0  65274-4 0  9998,2 52601  53.2204 336.1319 0002376  30.0810 330.0318 15.08844636 27718,6917.866,95.437,541.375,538.0880000000002,0.0
52601.0,STARLINK-4027,PAYLOAD,2022-11-10 07:03:21,15.08848475,0.0002469,53.2187,335.2372,34.2625,325.8526,9.4739e-05,1.22e-05,0.0,0 STARLINK-4027,1 52601U 22052D   22314.29400162  .00001220  00000-0  94739-4 0  9992,2 52601  53.2187 335.2372 0002469  34.2625 325.8526 15.08848475 28179,6917.854,95.437,541.428,538.011,0.0
